STARLINK-37288          
1 68551U 26070K   26112.56220463  .00134921  00000+0  67501-3 0  9991
2 68551  53.1576 164.4261 0001028  97.0789 263.0351 15.80920266  3191
STARLINK-37295          
1 68552U 26070L   26112.56370406  .00100048  00000+0  50363-3 0  9996
2 68552  53.1576 164.4366 0001166  59.9370 300.1768 15.80913623  3198
STARLINK-37254          
1 68553U 26070M   26112.62390333  .00133337  00000+0  66453-3 0  9999
2 68553  53.1578 164.0990 0002836  50.2888 309.8385 15.81005927  3206
STARLINK-37255          
1 68554U 26070N   26112.55994803  .00134728  00000+0  67346-3 0  9991
2 68554  53.1580 164.4111 0001264  79.3343 280.7822 15.80939827  3196
STARLINK-37146          
1 68555U 26070P   26112.56142203  .00087574  00000+0  43983-3 0  9999
2 68555  53.1576 164.4209 0001405  61.1962 298.9201 15.81016419  3199
STARLINK-37144          
1 68556U 26070Q   26112.55845191  .00063605  00000+0  32311-3 0  9997
2 68556  53.1578 164.4003 0001073  85.2922 274.8224 15.80893804  3196
STARLINK-37210          
1 68557U 26070R   26112.55920207  .00227878  00000+0  11240-2 0  9991
2 68557  53.1578 164.4065 0000907  55.4832 304.6277 15.80947846  3195
STARLINK-37227          
1 68558U 26070S   26112.55770514  .00176542  00000+0  87787-3 0  9997
2 68558  53.1579 164.3956 0000588  51.4326 308.6749 15.80920860  3199
STARLINK-37294          
1 68559U 26070T   26112.49373472  .00172086  00000+0  85678-3 0  9999
2 68559  53.1577 164.7078 0000719  70.5979 289.5121 15.80907409  3183
STARLINK-37291          
1 68560U 26070U   26112.55619854  .00103625  00000+0  52047-3 0  9992
2 68560  53.1576 164.3855 0000816  71.2152 288.8959 15.80948258  3191
STARLINK-37114          
1 68561U 26070V   26112.55545377  .00146019  00000+0  72975-3 0  9997
2 68561  53.1578 164.3807 0001061  69.0758 291.0378 15.80907141  3198
STARLINK-37233          
1 68562U 26070W   26112.55394914  .00136852  00000+0  68412-3 0  9992
2 68562  53.1576 164.3702 0001017  71.5176 288.5957 15.80931493  3195
STARLINK-36238          
1 68563U 26070X   26112.55470280  .00126811  00000+0  63578-3 0  9996
2 68563  53.1576 164.3750 0000764  59.3099 300.7999 15.80901937  3198
STARLINK-37008          
1 68564U 26070Y   26112.55320087  .00065665  00000+0  33336-3 0  9994
2 68564  53.1577 164.3652 0001311  60.0692 300.0461 15.80894991  3196
STARLINK-37161          
1 68565U 26070Z   26112.55245068  .00119343  00000+0  60001-3 0  9992
2 68565  53.1577 164.3597 0001282  47.0804 313.0326 15.80867755  3194
STARLINK-37212          
1 68566U 26070AA  26112.55170009  .00131708  00000+0  65925-3 0  9994
2 68566  53.1575 164.3545 0001327  48.8916 311.2221 15.80920752  3190
STARLINK-37261          
1 68567U 26070AB  26112.55094955  .00126294  00000+0  63283-3 0  9999
2 68567  53.1575 164.3495 0000911  87.4584 272.6543 15.80916175  3194
