[{"OBJECT_NAME":"STARLINK-37288","OBJECT_ID":"2026-070K","EPOCH":"2026-04-22T13:29:34.480032","MEAN_MOTION":15.80920266,"ECCENTRICITY":0.0001028,"INCLINATION":53.1576,"RA_OF_ASC_NODE":164.4261,"ARG_OF_PERICENTER":97.0789,"MEAN_ANOMALY":263.0351,"EPHEMERIS_TYPE":0,"CLASSIFICATION_TYPE":"U","NORAD_CAT_ID":68551,"ELEMENT_SET_NO":999,"REV_AT_EPOCH":319,"BSTAR":0.00067501,"MEAN_MOTION_DOT":0.00134921,"MEAN_MOTION_DDOT":0},{"OBJECT_NAME":"STARLINK-37295","OBJECT_ID":"2026-070L","EPOCH":"2026-04-22T13:31:44.030784","MEAN_MOTION":15.80913623,"ECCENTRICITY":0.0001166,"INCLINATION":53.1576,"RA_OF_ASC_NODE":164.4366,"ARG_OF_PERICENTER":59.937,"MEAN_ANOMALY":300.1768,"EPHEMERIS_TYPE":0,"CLASSIFICATION_TYPE":"U","NORAD_CAT_ID":68552,"ELEMENT_SET_NO":999,"REV_AT_EPOCH":319,"BSTAR":0.00050363,"MEAN_MOTION_DOT":0.00100048,"MEAN_MOTION_DDOT":0},{"OBJECT_NAME":"STARLINK-37254","OBJECT_ID":"2026-070M","EPOCH":"2026-04-22T14:58:25.246848","MEAN_MOTION":15.81005927,"ECCENTRICITY":0.0002836,"INCLINATION":53.1578,"RA_OF_ASC_NODE":164.099,"ARG_OF_PERICENTER":50.2888,"MEAN_ANOMALY":309.8385,"EPHEMERIS_TYPE":0,"CLASSIFICATION_TYPE":"U","NORAD_CAT_ID":68553,"ELEMENT_SET_NO":999,"REV_AT_EPOCH":320,"BSTAR":0.00066453,"MEAN_MOTION_DOT":0.00133337,"MEAN_MOTION_DDOT":0},{"OBJECT_NAME":"STARLINK-37255","OBJECT_ID":"2026-070N","EPOCH":"2026-04-22T13:26:19.509792","MEAN_MOTION":15.80939827,"ECCENTRICITY":0.0001264,"INCLINATION":53.158,"RA_OF_ASC_NODE":164.4111,"ARG_OF_PERICENTER":79.3343,"MEAN_ANOMALY":280.7822,"EPHEMERIS_TYPE":0,"CLASSIFICATION_TYPE":"U","NORAD_CAT_ID":68554,"ELEMENT_SET_NO":999,"REV_AT_EPOCH":319,"BSTAR":0.00067346,"MEAN_MOTION_DOT":0.00134728,"MEAN_MOTION_DDOT":0},{"OBJECT_NAME":"STARLINK-37146","OBJECT_ID":"2026-070P","EPOCH":"2026-04-22T13:28:26.863392","MEAN_MOTION":15.81016419,"ECCENTRICITY":0.0001405,"INCLINATION":53.1576,"RA_OF_ASC_NODE":164.4209,"ARG_OF_PERICENTER":61.1962,"MEAN_ANOMALY":298.9201,"EPHEMERIS_TYPE":0,"CLASSIFICATION_TYPE":"U","NORAD_CAT_ID":68555,"ELEMENT_SET_NO":999,"REV_AT_EPOCH":319,"BSTAR":0.00043983,"MEAN_MOTION_DOT":0.00087574,"MEAN_MOTION_DDOT":0},{"OBJECT_NAME":"STARLINK-37144","OBJECT_ID":"2026-070Q","EPOCH":"2026-04-22T13:24:10.245024","MEAN_MOTION":15.80893804,"ECCENTRICITY":0.0001073,"INCLINATION":53.1578,"RA_OF_ASC_NODE":164.4003,"ARG_OF_PERICENTER":85.2922,"MEAN_ANOMALY":274.8224,"EPHEMERIS_TYPE":0,"CLASSIFICATION_TYPE":"U","NORAD_CAT_ID":68556,"ELEMENT_SET_NO":999,"REV_AT_EPOCH":319,"BSTAR":0.00032311,"MEAN_MOTION_DOT":0.00063605,"MEAN_MOTION_DDOT":0},{"OBJECT_NAME":"STARLINK-37210","OBJECT_ID":"2026-070R","EPOCH":"2026-04-22T13:25:15.058848","MEAN_MOTION":15.80947846,"ECCENTRICITY":9.07e-5,"INCLINATION":53.1578,"RA_OF_ASC_NODE":164.4065,"ARG_OF_PERICENTER":55.4832,"MEAN_ANOMALY":304.6277,"EPHEMERIS_TYPE":0,"CLASSIFICATION_TYPE":"U","NORAD_CAT_ID":68557,"ELEMENT_SET_NO":999,"REV_AT_EPOCH":319,"BSTAR":0.001124,"MEAN_MOTION_DOT":0.00227878,"MEAN_MOTION_DDOT":0},{"OBJECT_NAME":"STARLINK-37227","OBJECT_ID":"2026-070S","EPOCH":"2026-04-22T13:23:05.724096","MEAN_MOTION":15.8092086,"ECCENTRICITY":5.88e-5,"INCLINATION":53.1579,"RA_OF_ASC_NODE":164.3956,"ARG_OF_PERICENTER":51.4326,"MEAN_ANOMALY":308.6749,"EPHEMERIS_TYPE":0,"CLASSIFICATION_TYPE":"U","NORAD_CAT_ID":68558,"ELEMENT_SET_NO":999,"REV_AT_EPOCH":319,"BSTAR":0.00087787,"MEAN_MOTION_DOT":0.00176542,"MEAN_MOTION_DDOT":0},{"OBJECT_NAME":"STARLINK-37294","OBJECT_ID":"2026-070T","EPOCH":"2026-04-22T11:50:58.679808","MEAN_MOTION":15.80907409,"ECCENTRICITY":7.19e-5,"INCLINATION":53.1577,"RA_OF_ASC_NODE":164.7078,"ARG_OF_PERICENTER":70.5979,"MEAN_ANOMALY":289.5121,"EPHEMERIS_TYPE":0,"CLASSIFICATION_TYPE":"U","NORAD_CAT_ID":68559,"ELEMENT_SET_NO":999,"REV_AT_EPOCH":318,"BSTAR":0.00085678,"MEAN_MOTION_DOT":0.00172086,"MEAN_MOTION_DDOT":0},{"OBJECT_NAME":"STARLINK-37291","OBJECT_ID":"2026-070U","EPOCH":"2026-04-22T13:20:55.553856","MEAN_MOTION":15.80948258,"ECCENTRICITY":8.16e-5,"INCLINATION":53.1576,"RA_OF_ASC_NODE":164.3855,"ARG_OF_PERICENTER":71.2152,"MEAN_ANOMALY":288.8959,"EPHEMERIS_TYPE":0,"CLASSIFICATION_TYPE":"U","NORAD_CAT_ID":68560,"ELEMENT_SET_NO":999,"REV_AT_EPOCH":319,"BSTAR":0.00052047,"MEAN_MOTION_DOT":0.00103625,"MEAN_MOTION_DDOT":0},{"OBJECT_NAME":"STARLINK-37114","OBJECT_ID":"2026-070V","EPOCH":"2026-04-22T13:19:51.205728","MEAN_MOTION":15.80907141,"ECCENTRICITY":0.0001061,"INCLINATION":53.1578,"RA_OF_ASC_NODE":164.3807,"ARG_OF_PERICENTER":69.0758,"MEAN_ANOMALY":291.0378,"EPHEMERIS_TYPE":0,"CLASSIFICATION_TYPE":"U","NORAD_CAT_ID":68561,"ELEMENT_SET_NO":999,"REV_AT_EPOCH":319,"BSTAR":0.00072975,"MEAN_MOTION_DOT":0.00146019,"MEAN_MOTION_DDOT":0},{"OBJECT_NAME":"STARLINK-37233","OBJECT_ID":"2026-070W","EPOCH":"2026-04-22T13:17:41.205696","MEAN_MOTION":15.80931493,"ECCENTRICITY":0.0001017,"INCLINATION":53.1576,"RA_OF_ASC_NODE":164.3702,"ARG_OF_PERICENTER":71.5176,"MEAN_ANOMALY":288.5957,"EPHEMERIS_TYPE":0,"CLASSIFICATION_TYPE":"U","NORAD_CAT_ID":68562,"ELEMENT_SET_NO":999,"REV_AT_EPOCH":319,"BSTAR":0.00068412,"MEAN_MOTION_DOT":0.00136852,"MEAN_MOTION_DDOT":0},{"OBJECT_NAME":"STARLINK-36238","OBJECT_ID":"2026-070X","EPOCH":"2026-04-22T13:18:46.321920","MEAN_MOTION":15.80901937,"ECCENTRICITY":7.64e-5,"INCLINATION":53.1576,"RA_OF_ASC_NODE":164.375,"ARG_OF_PERICENTER":59.3099,"MEAN_ANOMALY":300.7999,"EPHEMERIS_TYPE":0,"CLASSIFICATION_TYPE":"U","NORAD_CAT_ID":68563,"ELEMENT_SET_NO":999,"REV_AT_EPOCH":319,"BSTAR":0.00063578,"MEAN_MOTION_DOT":0.00126811,"MEAN_MOTION_DDOT":0},{"OBJECT_NAME":"STARLINK-37008","OBJECT_ID":"2026-070Y","EPOCH":"2026-04-22T13:16:36.555168","MEAN_MOTION":15.80894991,"ECCENTRICITY":0.0001311,"INCLINATION":53.1577,"RA_OF_ASC_NODE":164.3652,"ARG_OF_PERICENTER":60.0692,"MEAN_ANOMALY":300.0461,"EPHEMERIS_TYPE":0,"CLASSIFICATION_TYPE":"U","NORAD_CAT_ID":68564,"ELEMENT_SET_NO":999,"REV_AT_EPOCH":319,"BSTAR":0.00033336,"MEAN_MOTION_DOT":0.00065665,"MEAN_MOTION_DDOT":0},{"OBJECT_NAME":"STARLINK-37161","OBJECT_ID":"2026-070Z","EPOCH":"2026-04-22T13:15:31.738752","MEAN_MOTION":15.80867755,"ECCENTRICITY":0.0001282,"INCLINATION":53.1577,"RA_OF_ASC_NODE":164.3597,"ARG_OF_PERICENTER":47.0804,"MEAN_ANOMALY":313.0326,"EPHEMERIS_TYPE":0,"CLASSIFICATION_TYPE":"U","NORAD_CAT_ID":68565,"ELEMENT_SET_NO":999,"REV_AT_EPOCH":319,"BSTAR":0.00060001,"MEAN_MOTION_DOT":0.00119343,"MEAN_MOTION_DDOT":0},{"OBJECT_NAME":"STARLINK-37212","OBJECT_ID":"2026-070AA","EPOCH":"2026-04-22T13:14:26.887776","MEAN_MOTION":15.80920752,"ECCENTRICITY":0.0001327,"INCLINATION":53.1575,"RA_OF_ASC_NODE":164.3545,"ARG_OF_PERICENTER":48.8916,"MEAN_ANOMALY":311.2221,"EPHEMERIS_TYPE":0,"CLASSIFICATION_TYPE":"U","NORAD_CAT_ID":68566,"ELEMENT_SET_NO":999,"REV_AT_EPOCH":319,"BSTAR":0.00065925,"MEAN_MOTION_DOT":0.00131708,"MEAN_MOTION_DDOT":0},{"OBJECT_NAME":"STARLINK-37261","OBJECT_ID":"2026-070AB","EPOCH":"2026-04-22T13:13:22.041120","MEAN_MOTION":15.80916175,"ECCENTRICITY":9.11e-5,"INCLINATION":53.1575,"RA_OF_ASC_NODE":164.3495,"ARG_OF_PERICENTER":87.4584,"MEAN_ANOMALY":272.6543,"EPHEMERIS_TYPE":0,"CLASSIFICATION_TYPE":"U","NORAD_CAT_ID":68567,"ELEMENT_SET_NO":999,"REV_AT_EPOCH":319,"BSTAR":0.00063283,"MEAN_MOTION_DOT":0.00126294,"MEAN_MOTION_DDOT":0}]
